[
  {
    "name": "PLEIADES NEO 3",
    "line1": "1 48268U 21034A   26003.33886427 -.00000629  00000+0 -73304-4 0  9999",
    "line2": "2 48268  97.8951  80.4710 0001336  85.7031 274.4334 14.81670851253240",
    "catNr": 48268
  },
  {
    "name": "PLEIADES NEO 4",
    "line1": "1 49070U 21073E   26003.23755373  .00000197  00000+0  31675-4 0  9991",
    "line2": "2 49070  97.8952  80.3667 0001264  89.1182 271.0176 14.81673339236947",
    "catNr": 49070
  }
]